<?xml version="1.0" encoding="UTF-8"?>
<ndm xmlns:xsi="http://www.w3.org/2001/XMLSchema-instance" xsi:noNamespaceSchemaLocation="https://sanaregistry.org/r/ndmxml_unqualified/ndmxml-2.0.0-master-2.0.xsd">
<omm id="CCSDS_OMM_VERS" version="2.0">
<header><CREATION_DATE/><ORIGINATOR/></header><body><segment><metadata><OBJECT_NAME>ORBCOMM FM103</OBJECT_NAME><OBJECT_ID>2014-040F</OBJECT_ID><CENTER_NAME>EARTH</CENTER_NAME><REF_FRAME>TEME</REF_FRAME><TIME_SYSTEM>UTC</TIME_SYSTEM><MEAN_ELEMENT_THEORY>SGP4</MEAN_ELEMENT_THEORY></metadata><data><meanElements><EPOCH>2025-12-31T11:57:43.140672</EPOCH><MEAN_MOTION>14.58567623</MEAN_MOTION><ECCENTRICITY>.00012718</ECCENTRICITY><INCLINATION>47.0035</INCLINATION><RA_OF_ASC_NODE>165.7197</RA_OF_ASC_NODE><ARG_OF_PERICENTER>122.3379</ARG_OF_PERICENTER><MEAN_ANOMALY>237.7630</MEAN_ANOMALY></meanElements><tleParameters><EPHEMERIS_TYPE>0</EPHEMERIS_TYPE><CLASSIFICATION_TYPE>U</CLASSIFICATION_TYPE><NORAD_CAT_ID>40091</NORAD_CAT_ID><ELEMENT_SET_NO>999</ELEMENT_SET_NO><REV_AT_EPOCH>59290</REV_AT_EPOCH><BSTAR>.31485652E-3</BSTAR><MEAN_MOTION_DOT>.1308E-4</MEAN_MOTION_DOT><MEAN_MOTION_DDOT>0</MEAN_MOTION_DDOT></tleParameters></data></segment></body></omm>
<omm id="CCSDS_OMM_VERS" version="2.0">
<header><CREATION_DATE/><ORIGINATOR/></header><body><segment><metadata><OBJECT_NAME>ORBCOMM FM114</OBJECT_NAME><OBJECT_ID>2015-081A</OBJECT_ID><CENTER_NAME>EARTH</CENTER_NAME><REF_FRAME>TEME</REF_FRAME><TIME_SYSTEM>UTC</TIME_SYSTEM><MEAN_ELEMENT_THEORY>SGP4</MEAN_ELEMENT_THEORY></metadata><data><meanElements><EPOCH>2025-12-31T14:00:07.203744</EPOCH><MEAN_MOTION>14.58592636</MEAN_MOTION><ECCENTRICITY>.00021946</ECCENTRICITY><INCLINATION>47.0052</INCLINATION><RA_OF_ASC_NODE>74.2712</RA_OF_ASC_NODE><ARG_OF_PERICENTER>177.7471</ARG_OF_PERICENTER><MEAN_ANOMALY>182.3425</MEAN_ANOMALY></meanElements><tleParameters><EPHEMERIS_TYPE>0</EPHEMERIS_TYPE><CLASSIFICATION_TYPE>U</CLASSIFICATION_TYPE><NORAD_CAT_ID>41179</NORAD_CAT_ID><ELEMENT_SET_NO>999</ELEMENT_SET_NO><REV_AT_EPOCH>53328</REV_AT_EPOCH><BSTAR>.34958713E-3</BSTAR><MEAN_MOTION_DOT>.1472E-4</MEAN_MOTION_DOT><MEAN_MOTION_DDOT>0</MEAN_MOTION_DDOT></tleParameters></data></segment></body></omm>
<omm id="CCSDS_OMM_VERS" version="2.0">
<header><CREATION_DATE/><ORIGINATOR/></header><body><segment><metadata><OBJECT_NAME>ORBCOMM FM119</OBJECT_NAME><OBJECT_ID>2015-081B</OBJECT_ID><CENTER_NAME>EARTH</CENTER_NAME><REF_FRAME>TEME</REF_FRAME><TIME_SYSTEM>UTC</TIME_SYSTEM><MEAN_ELEMENT_THEORY>SGP4</MEAN_ELEMENT_THEORY></metadata><data><meanElements><EPOCH>2025-12-31T00:46:14.822400</EPOCH><MEAN_MOTION>14.58540282</MEAN_MOTION><ECCENTRICITY>.00017656</ECCENTRICITY><INCLINATION>47.0017</INCLINATION><RA_OF_ASC_NODE>346.2356</RA_OF_ASC_NODE><ARG_OF_PERICENTER>255.9990</ARG_OF_PERICENTER><MEAN_ANOMALY>104.0700</MEAN_ANOMALY></meanElements><tleParameters><EPHEMERIS_TYPE>0</EPHEMERIS_TYPE><CLASSIFICATION_TYPE>U</CLASSIFICATION_TYPE><NORAD_CAT_ID>41180</NORAD_CAT_ID><ELEMENT_SET_NO>999</ELEMENT_SET_NO><REV_AT_EPOCH>53445</REV_AT_EPOCH><BSTAR>.35687401E-3</BSTAR><MEAN_MOTION_DOT>.1505E-4</MEAN_MOTION_DOT><MEAN_MOTION_DDOT>0</MEAN_MOTION_DDOT></tleParameters></data></segment></body></omm>
<omm id="CCSDS_OMM_VERS" version="2.0">
<header><CREATION_DATE/><ORIGINATOR/></header><body><segment><metadata><OBJECT_NAME>ORBCOMM FM105</OBJECT_NAME><OBJECT_ID>2015-081C</OBJECT_ID><CENTER_NAME>EARTH</CENTER_NAME><REF_FRAME>TEME</REF_FRAME><TIME_SYSTEM>UTC</TIME_SYSTEM><MEAN_ELEMENT_THEORY>SGP4</MEAN_ELEMENT_THEORY></metadata><data><meanElements><EPOCH>2025-12-31T10:46:14.725920</EPOCH><MEAN_MOTION>14.45423542</MEAN_MOTION><ECCENTRICITY>.00010237</ECCENTRICITY><INCLINATION>47.0025</INCLINATION><RA_OF_ASC_NODE>8.5006</RA_OF_ASC_NODE><ARG_OF_PERICENTER>154.5085</ARG_OF_PERICENTER><MEAN_ANOMALY>205.5846</MEAN_ANOMALY></meanElements><tleParameters><EPHEMERIS_TYPE>0</EPHEMERIS_TYPE><CLASSIFICATION_TYPE>U</CLASSIFICATION_TYPE><NORAD_CAT_ID>41181</NORAD_CAT_ID><ELEMENT_SET_NO>999</ELEMENT_SET_NO><REV_AT_EPOCH>52928</REV_AT_EPOCH><BSTAR>.21664295E-3</BSTAR><MEAN_MOTION_DOT>.612E-5</MEAN_MOTION_DOT><MEAN_MOTION_DDOT>0</MEAN_MOTION_DDOT></tleParameters></data></segment></body></omm>
<omm id="CCSDS_OMM_VERS" version="2.0">
<header><CREATION_DATE/><ORIGINATOR/></header><body><segment><metadata><OBJECT_NAME>ORBCOMM FM110</OBJECT_NAME><OBJECT_ID>2015-081D</OBJECT_ID><CENTER_NAME>EARTH</CENTER_NAME><REF_FRAME>TEME</REF_FRAME><TIME_SYSTEM>UTC</TIME_SYSTEM><MEAN_ELEMENT_THEORY>SGP4</MEAN_ELEMENT_THEORY></metadata><data><meanElements><EPOCH>2025-12-31T05:31:56.982432</EPOCH><MEAN_MOTION>14.58627683</MEAN_MOTION><ECCENTRICITY>.0002133</ECCENTRICITY><INCLINATION>47.0023</INCLINATION><RA_OF_ASC_NODE>75.4321</RA_OF_ASC_NODE><ARG_OF_PERICENTER>354.5387</ARG_OF_PERICENTER><MEAN_ANOMALY>5.5475</MEAN_ANOMALY></meanElements><tleParameters><EPHEMERIS_TYPE>0</EPHEMERIS_TYPE><CLASSIFICATION_TYPE>U</CLASSIFICATION_TYPE><NORAD_CAT_ID>41182</NORAD_CAT_ID><ELEMENT_SET_NO>999</ELEMENT_SET_NO><REV_AT_EPOCH>53310</REV_AT_EPOCH><BSTAR>.45741E-3</BSTAR><MEAN_MOTION_DOT>.1981E-4</MEAN_MOTION_DOT><MEAN_MOTION_DDOT>0</MEAN_MOTION_DDOT></tleParameters></data></segment></body></omm>
<omm id="CCSDS_OMM_VERS" version="2.0">
<header><CREATION_DATE/><ORIGINATOR/></header><body><segment><metadata><OBJECT_NAME>ORBCOMM FM118</OBJECT_NAME><OBJECT_ID>2015-081E</OBJECT_ID><CENTER_NAME>EARTH</CENTER_NAME><REF_FRAME>TEME</REF_FRAME><TIME_SYSTEM>UTC</TIME_SYSTEM><MEAN_ELEMENT_THEORY>SGP4</MEAN_ELEMENT_THEORY></metadata><data><meanElements><EPOCH>2025-12-31T14:34:55.418304</EPOCH><MEAN_MOTION>14.58617618</MEAN_MOTION><ECCENTRICITY>.00030972</ECCENTRICITY><INCLINATION>47.0046</INCLINATION><RA_OF_ASC_NODE>73.9525</RA_OF_ASC_NODE><ARG_OF_PERICENTER>320.0239</ARG_OF_PERICENTER><MEAN_ANOMALY>40.0418</MEAN_ANOMALY></meanElements><tleParameters><EPHEMERIS_TYPE>0</EPHEMERIS_TYPE><CLASSIFICATION_TYPE>U</CLASSIFICATION_TYPE><NORAD_CAT_ID>41183</NORAD_CAT_ID><ELEMENT_SET_NO>999</ELEMENT_SET_NO><REV_AT_EPOCH>53326</REV_AT_EPOCH><BSTAR>.41074356E-3</BSTAR><MEAN_MOTION_DOT>.1761E-4</MEAN_MOTION_DOT><MEAN_MOTION_DDOT>0</MEAN_MOTION_DDOT></tleParameters></data></segment></body></omm>
<omm id="CCSDS_OMM_VERS" version="2.0">
<header><CREATION_DATE/><ORIGINATOR/></header><body><segment><metadata><OBJECT_NAME>ORBCOMM FM112</OBJECT_NAME><OBJECT_ID>2015-081F</OBJECT_ID><CENTER_NAME>EARTH</CENTER_NAME><REF_FRAME>TEME</REF_FRAME><TIME_SYSTEM>UTC</TIME_SYSTEM><MEAN_ELEMENT_THEORY>SGP4</MEAN_ELEMENT_THEORY></metadata><data><meanElements><EPOCH>2025-12-31T08:04:10.294464</EPOCH><MEAN_MOTION>14.58620056</MEAN_MOTION><ECCENTRICITY>.00012789</ECCENTRICITY><INCLINATION>47.0001</INCLINATION><RA_OF_ASC_NODE>343.7629</RA_OF_ASC_NODE><ARG_OF_PERICENTER>195.9671</ARG_OF_PERICENTER><MEAN_ANOMALY>164.1174</MEAN_ANOMALY></meanElements><tleParameters><EPHEMERIS_TYPE>0</EPHEMERIS_TYPE><CLASSIFICATION_TYPE>U</CLASSIFICATION_TYPE><NORAD_CAT_ID>41184</NORAD_CAT_ID><ELEMENT_SET_NO>999</ELEMENT_SET_NO><REV_AT_EPOCH>53444</REV_AT_EPOCH><BSTAR>.39251323E-3</BSTAR><MEAN_MOTION_DOT>.1675E-4</MEAN_MOTION_DOT><MEAN_MOTION_DDOT>0</MEAN_MOTION_DDOT></tleParameters></data></segment></body></omm>
<omm id="CCSDS_OMM_VERS" version="2.0">
<header><CREATION_DATE/><ORIGINATOR/></header><body><segment><metadata><OBJECT_NAME>ORBCOMM FM113</OBJECT_NAME><OBJECT_ID>2015-081G</OBJECT_ID><CENTER_NAME>EARTH</CENTER_NAME><REF_FRAME>TEME</REF_FRAME><TIME_SYSTEM>UTC</TIME_SYSTEM><MEAN_ELEMENT_THEORY>SGP4</MEAN_ELEMENT_THEORY></metadata><data><meanElements><EPOCH>2025-12-31T07:31:29.289216</EPOCH><MEAN_MOTION>14.58615569</MEAN_MOTION><ECCENTRICITY>.0001264</ECCENTRICITY><INCLINATION>47.0021</INCLINATION><RA_OF_ASC_NODE>344.2293</RA_OF_ASC_NODE><ARG_OF_PERICENTER>214.3632</ARG_OF_PERICENTER><MEAN_ANOMALY>145.7173</MEAN_ANOMALY></meanElements><tleParameters><EPHEMERIS_TYPE>0</EPHEMERIS_TYPE><CLASSIFICATION_TYPE>U</CLASSIFICATION_TYPE><NORAD_CAT_ID>41185</NORAD_CAT_ID><ELEMENT_SET_NO>999</ELEMENT_SET_NO><REV_AT_EPOCH>53442</REV_AT_EPOCH><BSTAR>.37054377E-3</BSTAR><MEAN_MOTION_DOT>.1572E-4</MEAN_MOTION_DOT><MEAN_MOTION_DDOT>0</MEAN_MOTION_DDOT></tleParameters></data></segment></body></omm>

</ndm>
