ORBCOMM FM103           
1 40091U 14040F   25365.49841598  .00001308  00000+0  31486-3 0  9998
2 40091  47.0035 165.7197 0001271 122.3379 237.7630 14.58567623592909
ORBCOMM FM114           
1 41179U 15081A   25365.58341671  .00001472  00000+0  34959-3 0  9999
2 41179  47.0052  74.2712 0002194 177.7471 182.3425 14.58592636533280
ORBCOMM FM119           
1 41180U 15081B   25365.03211600  .00001505  00000+0  35687-3 0  9995
2 41180  47.0017 346.2356 0001765 255.9990 104.0700 14.58540282534454
ORBCOMM FM105           
1 41181U 15081C   25365.44878155  .00000612  00000+0  21664-3 0  9993
2 41181  47.0025   8.5006 0001023 154.5085 205.5846 14.45423542529288
ORBCOMM FM110           
1 41182U 15081D   25365.23052063  .00001981  00000+0  45741-3 0  9995
2 41182  47.0023  75.4321 0002133 354.5387   5.5475 14.58627683533108
ORBCOMM FM118           
1 41183U 15081E   25365.60758586  .00001761  00000+0  41074-3 0  9991
2 41183  47.0046  73.9525 0003097 320.0239  40.0418 14.58617618533262
ORBCOMM FM112           
1 41184U 15081F   25365.33623026  .00001675  00000+0  39251-3 0  9990
2 41184  47.0001 343.7629 0001278 195.9671 164.1174 14.58620056534443
ORBCOMM FM113           
1 41185U 15081G   25365.31353344  .00001572  00000+0  37054-3 0  9997
2 41185  47.0021 344.2293 0001264 214.3632 145.7173 14.58615569534422
